{
  "type": "FeatureCollection",
  "name": "selected_polygon",
  "crs": {
    "type": "name",
    "properties": {
      "name": "urn:ogc:def:crs:EPSG::2193"
    }
  },
  "features": [
    {
      "type": "Feature",
      "properties": {},
      "geometry": {
        "type": "Polygon",
        "coordinates": [
          [
            [
              1575623.617004916304722,
              5183758.499646188691258
            ],
            [
              1577185.840256729861721,
              5183758.499646188691258
            ],
            [
              1577185.840256729861721,
              5182606.473123245872557
            ],
            [
              1575623.617004916304722,
              5182606.473123245872557
            ],
            [
              1575623.617004916304722,
              5183758.499646188691258
            ]
          ]
        ]
      }
    }
  ]
}
